{"spkid": "50031199", "covariance": {"epoch": "2458168.5", "elements": [{"label": "e", "value": ".4954890829914789", "title": "eccentricity", "units": null, "name": "e", "sigma": 2.86848356297487e-06}, {"units": "au", "title": "perihelion distance", "value": ".4518515645166081", "sigma": 2.56328496124149e-06, "name": "q", "label": "q"}, {"value": "2458183.931188192598", "title": "time of perihelion passage", "units": "TDB", "sigma": 0.00018745345029983, "name": "tp", "label": "tp"}, {"units": "deg", "title": "longitude of the ascending node", "value": "162.8411439516109", "sigma": 2.40318518820555e-05, "name": "om", "label": "node"}, {"label": "peri", "name": "w", "sigma": 0.000108588312912642, "units": "deg", "value": "139.6068323091688", "title": "argument of perihelion"}, {"label": "i", "name": "i", "sigma": 7.61384883656402e-05, "units": "deg", "title": "inclination", "value": "11.57151899333007"}], "data": [["8.228197951056977E-12", "-7.352739057429381E-12", "-3.816903090511543E-10", "-3.832834663318688E-12", "2.077170698753192E-10", "1.999538898466368E-10", "-7.673803620694883E-21"], ["-7.352739057429381E-12", "6.570429792526772E-12", "3.410073953656673E-10", "3.430985540497013E-12", "-1.856564041345026E-10", "-1.786905437201838E-10", "6.870001717551187E-21"], ["-3.816903090511543E-10", "3.410073953656673E-10", "3.513879602931065E-8", "-1.474733951903548E-9", "6.785269959148412E-10", "-6.226165578995335E-9", "-2.006526933849091E-19"], ["-3.832834663318688E-12", "3.430985540497013E-12", "-1.474733951903548E-9", "5.77529904881055E-10", "-1.49286654099716E-9", "-6.002691037156875E-10", "4.861233944133019E-20"], ["2.077170698753192E-10", "-1.856564041345026E-10", "6.785269959148412E-10", "-1.49286654099716E-9", "1.179142170121375E-8", "7.07709683164766E-9", "-5.025871595485311E-19"], ["1.999538898466368E-10", "-1.786905437201838E-10", "-6.226165578995335E-9", "-6.002691037156875E-10", "7.07709683164766E-9", "5.797069410604726E-9", "-2.73993125503526E-19"], ["-7.673803620694883E-21", "6.870001717551187E-21", "-2.006526933849091E-19", "4.861233944133019E-20", "-5.025871595485311E-19", "-2.73993125503526E-19", "6.663704659935611E-29"]], "labels": ["e", "q", "tp", "node", "peri", "i", "A2"]}, "elements": [{"name": "e", "sigma": "2.8676E-6", "title": "eccentricity", "value": ".4955794726837506", "units": null, "label": "e"}, {"label": "a", "units": "au", "value": ".8955452019697518", "title": "semi-major axis", "name": "a", "sigma": "9.6332E-9"}, {"label": "q", "name": "q", "sigma": "2.5649E-6", "value": ".4517313830131193", "title": "perihelion distance", "units": "au"}, {"label": "i", "value": "11.57393217654259", "title": "inclination; angle with respect to x-y ecliptic plane", "units": "deg", "sigma": "7.6315E-5", "name": "i"}, {"label": "node", "title": "longitude of the ascending node", "value": "162.7773422000812", "units": "deg", "name": "om", "sigma": "2.4053E-5"}, {"label": "peri", "units": "deg", "title": "argument of perihelion", "value": "139.6635841623947", "name": "w", "sigma": ".00010833"}, {"label": "M", "title": "mean anomaly", "value": "267.9203764156683", "units": "deg", "sigma": ".00017551", "name": "ma"}, {"label": "tp", "name": "tp", "sigma": ".00015019", "units": "TDB", "title": "time of perihelion passage", "value": "2461279.675484292223"}, {"label": "period", "name": "per", "sigma": "4.9947E-6", "units": "d", "title": "sidereal orbital period", "value": "309.5492057381783"}, {"title": "mean motion", "value": "1.162981501249574", "units": "deg/d", "name": "n", "sigma": "1.8765E-8", "label": "n"}, {"name": "ad", "sigma": "1.4407E-8", "value": "1.339359020926384", "title": "aphelion distance", "units": "au", "label": "Q"}], "epoch": "2461200.5"}